LEMUR-2-TOMATOKECHUP    
1 60471U 24149D   26117.47166287  .00013674  00000+0  40512-3 0  9991
2 60471  97.3800 199.4316 0003049  80.6280 279.5308 15.34973305 94388
CONNECTA IOT-1          
1 60472U 24149E   26117.45073653  .00005154  00000+0  22119-3 0  9991
2 60472  97.3770 194.6119 0003677  96.6147 263.5508 15.23140411 94072
LOPEN                   
1 60473U 24149F   26117.21766736  .00018912  00000+0  50404-3 0  9991
2 60473  97.3780 200.2465 0002861  94.2524 265.9048 15.38207903 94429
ROCK                    
1 60474U 24149G   26117.20430364  .00018622  00000+0  49623-3 0  9995
2 60474  97.3774 200.2510 0003050  89.2436 270.9159 15.38215975 94428
CONNECTA IOT-3          
1 60475U 24149H   26117.47248148  .00005254  00000+0  22535-3 0  9992
2 60475  97.3744 194.4017 0004661  89.0084 271.1687 15.23149118 94088
QUBE                    
1 60476U 24149J   26117.49351984  .00025554  00000+0  54564-3 0  9990
2 60476  97.3776 203.0441 0002881  81.7098 278.4478 15.44846067 94637
WREN-1                  
1 60478U 24149L   26117.53472340  .00021986  00000+0  55969-3 0  9992
2 60478  97.3768 201.1941 0005628  92.9616 267.2274 15.39576352 94525
TOMORROW-S1             
1 60479U 24149M   26117.52776709  .00008308  00000+0  27134-3 0  9994
2 60479  97.3756 198.1876 0004183  81.7640 278.4076 15.32001006 94338
FLOCK 4BE-18            
1 60480U 24149N   26116.78220157  .00023270  00000+0  58054-3 0  9994
2 60480  97.3729 200.0410 0005022  92.3220 267.8601 15.40184890 94396
FLOCK 4BE-7             
1 60481U 24149P   26117.18591167  .00028029  00000+0  74497-3 0  9998
2 60481  97.3764 199.9044 0004191  96.6265 263.5457 15.38208812 94409
FLOCK 4BE-26            
1 60484U 24149S   26117.50283723  .00152709  00000+0  21898-2 0  9992
2 60484  97.3685 201.4570 0002630 140.9259 219.2186 15.55613603 94559
TOMORROW-S2             
1 60485U 24149T   26117.49354275  .00008974  00000+0  29276-3 0  9995
2 60485  97.3820 198.5950 0004568  96.7860 263.3901 15.32007813 94322
FLOCK 4BE-36            
1 60486U 24149U   26117.49748797  .00018778  00000+0  45503-3 0  9996
2 60486  97.3744 201.3826 0005118  98.4550 261.7277 15.41113908 94545
FLOCK 4BE-25            
1 60487U 24149V   26117.47476046  .00018046  00000+0  49209-3 0  9995
2 60487  97.3801 200.3339 0003691  96.0691 264.0975 15.37506231 94442
FLOCK 4BE-31            
1 60488U 24149W   26117.50257975  .00021133  00000+0  49447-3 0  9993
2 60488  97.3803 202.1149 0004023 102.1120 258.0578 15.42152468 94560
FLOCK 4BE-20            
1 60489U 24149X   26117.21712838  .00017950  00000+0  50206-3 0  9993
2 60489  97.3703 199.0836 0005256  97.4528 262.7313 15.36710976 94380
FLOCK 4BE-23            
1 60490U 24149Y   26117.19521613  .00015632  00000+0  44289-3 0  9990
2 60490  97.3781 199.4093 0005098 103.7132 256.4680 15.36339639 94361
